{
  "norad_id": 68899,
  "name": "STARLINK-37514",
  "history": [
    {
      "epoch": "2026-05-04T18:00:02.000160Z",
      "apogee_km": 281.66817015178094,
      "perigee_km": 279.7158014931365,
      "latitude_deg": -49.30542537677454,
      "longitude_deg": -1.4711556754251083,
      "height_km": 300.6495807294695,
      "semi_major_axis_km": 6658.828985822458,
      "eccentricity": 0.0001466,
      "inclination_deg": 97.287,
      "raan_deg": 319.6746,
      "arg_perigee_deg": 90.6121,
      "mean_anomaly_deg": 138.9537,
      "mean_motion_rev_day": 15.97739492
    }
  ]
}