{"generatedAt":"2026-05-05T08:19:47.084492Z","satellites":[{"name":"STARLINK-37514","tle1":"1 68899U 26097E   26124.75002315 -.02298095  15152-2 -52048-2 0  9996","tle2":"2 68899  97.2870 319.6746 0001466  90.6121 138.9537 15.97739492  1943"}]}